{"type": "FeatureCollection", "features": [ {"type": "Feature", "properties": {"norad_id": 37834, "name": "INTELSAT 18 (IS-18)", "group": "intelsat", "lat": 0.02328882541240522, "lon": 85.96782602308245, "alt_km": 35793.026484134985, "timestamp": "2025-12-23T11:34:47.849368+00:00", "meta": {"OBJECT_NAME": "INTELSAT 18 (IS-18)", "OBJECT_ID": "2011-056A", "EPOCH": "2025-12-22T19:09:27.496224", "MEAN_MOTION": 1.00271314, "ECCENTRICITY": 0.00017281, "INCLINATION": 0.0276, "RA_OF_ASC_NODE": 283.5388, "ARG_OF_PERICENTER": 2.7556, "MEAN_ANOMALY": 272.6648, "EPHEMERIS_TYPE": 0, "CLASSIFICATION_TYPE": "U", "NORAD_CAT_ID": 37834, "ELEMENT_SET_NO": 999, "REV_AT_EPOCH": 5204, "BSTAR": 0, "MEAN_MOTION_DOT": 7.4e-07, "MEAN_MOTION_DDOT": 0}, "tle": {"line1": "1 37834U 11056A   25356.79823491  .00000074  00000+0  00000+0 0  9991", "line2": "2 37834   0.0276 283.5388 0001728   2.7556 272.6648  1.00271314 52047"}}, "geometry": {"type": "Point", "coordinates": [85.96782602308245, 0.02328882541240522]}}, {"type": "Feature", "properties": {"norad_id": 38098, "name": "INTELSAT 22 (IS-22)", "group": "intelsat", "lat": -0.010735488251893934, "lon": -21.92825819240676, "alt_km": 35781.323471130374, "timestamp": "2025-12-23T11:34:47.849378+00:00", "meta": {"OBJECT_NAME": "INTELSAT 22 (IS-22)", "OBJECT_ID": "2012-011A", "EPOCH": "2025-12-22T23:46:45.939072", "MEAN_MOTION": 1.00271137, "ECCENTRICITY": 0.0001765, "INCLINATION": 0.0014, "RA_OF_ASC_NODE": 357.9649, "ARG_OF_PERICENTER": 291.5735, "MEAN_ANOMALY": 231.0333, "EPHEMERIS_TYPE": 0, "CLASSIFICATION_TYPE": "U", "NORAD_CAT_ID": 38098, "ELEMENT_SET_NO": 999, "REV_AT_EPOCH": 542, "BSTAR": 0, "MEAN_MOTION_DOT": -3.7e-07, "MEAN_MOTION_DDOT": 0}, "tle": {"line1": "1 38098U 12011A   25356.99080948 -.00000037  00000+0  00000+0 0  9990", "line2": "2 38098   0.0014 357.9649 0001765 291.5735 231.0333  1.00271137  5427"}}, "geometry": {"type": "Point", "coordinates": [-21.92825819240676, -0.010735488251893934]}}, {"type": "Feature", "properties": {"norad_id": 38356, "name": "INTELSAT 19 (IS-19)", "group": "intelsat", "lat": 0.030759634665366527, "lon": 71.9768336887666, "alt_km": 35797.57474916359, "timestamp": "2025-12-23T11:34:47.849389+00:00", "meta": {"OBJECT_NAME": "INTELSAT 19 (IS-19)", "OBJECT_ID": "2012-030A", "EPOCH": "2025-12-22T19:05:27.877056", "MEAN_MOTION": 1.00272152, "ECCENTRICITY": 0.0002849, "INCLINATION": 0.0176, "RA_OF_ASC_NODE": 315.2241, "ARG_OF_PERICENTER": 312.5552, "MEAN_ANOMALY": 276.1838, "EPHEMERIS_TYPE": 0, "CLASSIFICATION_TYPE": "U", "NORAD_CAT_ID": 38356, "ELEMENT_SET_NO": 999, "REV_AT_EPOCH": 4868, "BSTAR": 0, "MEAN_MOTION_DOT": -3.5e-07, "MEAN_MOTION_DDOT": 0}, "tle": {"line1": "1 38356U 12030A   25356.79546154 -.00000035  00000+0  00000+0 0  9990", "line2": "2 38356   0.0176 315.2241 0002849 312.5552 276.1838  1.00272152 48686"}}, "geometry": {"type": "Point", "coordinates": [71.9768336887666, 0.030759634665366527]}}, {"type": "Feature", "properties": {"norad_id": 38740, "name": "INTELSAT 20 (IS-20)", "group": "intelsat", "lat": -0.02381268823593137, "lon": -25.529042473818894, "alt_km": 35797.468542534734, "timestamp": "2025-12-23T11:34:47.849400+00:00", "meta": {"OBJECT_NAME": "INTELSAT 20 (IS-20)", "OBJECT_ID": "2012-043A", "EPOCH": "2025-12-23T01:11:51.442080", "MEAN_MOTION": 1.00271761, "ECCENTRICITY": 0.0003091, "INCLINATION": 0.0102, "RA_OF_ASC_NODE": 55.9488, "ARG_OF_PERICENTER": 127.0867, "MEAN_ANOMALY": 355.2638, "EPHEMERIS_TYPE": 0, "CLASSIFICATION_TYPE": "U", "NORAD_CAT_ID": 38740, "ELEMENT_SET_NO": 999, "REV_AT_EPOCH": 4898, "BSTAR": 0, "MEAN_MOTION_DOT": -3e-08, "MEAN_MOTION_DDOT": 0}, "tle": {"line1": "1 38740U 12043A   25357.04990095 -.00000003  00000+0  00000+0 0  9992", "line2": "2 38740   0.0102  55.9488 0003091 127.0867 355.2638  1.00271761 48986"}}, "geometry": {"type": "Point", "coordinates": [-25.529042473818894, -0.02381268823593137]}}, {"type": "Feature", "properties": {"norad_id": 38749, "name": "INTELSAT 21 (IS-21)", "group": "intelsat", "lat": -0.021052219895279518, "lon": -152.0509092837969, "alt_km": 35782.86269663949, "timestamp": "2025-12-23T11:34:47.849411+00:00", "meta": {"OBJECT_NAME": "INTELSAT 21 (IS-21)", "OBJECT_ID": "2012-045A", "EPOCH": "2025-12-23T02:35:02.014080", "MEAN_MOTION": 1.0027106, "ECCENTRICITY": 0.0001552, "INCLINATION": 0.0181, "RA_OF_ASC_NODE": 298.9202, "ARG_OF_PERICENTER": 327.0971, "MEAN_ANOMALY": 166.6443, "EPHEMERIS_TYPE": 0, "CLASSIFICATION_TYPE": "U", "NORAD_CAT_ID": 38749, "ELEMENT_SET_NO": 999, "REV_AT_EPOCH": 4875, "BSTAR": 0, "MEAN_MOTION_DOT": -2.64e-06, "MEAN_MOTION_DDOT": 0}, "tle": {"line1": "1 38749U 12045A   25357.10766220 -.00000264  00000+0  00000+0 0  9990", "line2": "2 38749   0.0181 298.9202 0001552 327.0971 166.6443  1.00271060 48758"}}, "geometry": {"type": "Point", "coordinates": [-152.0509092837969, -0.021052219895279518]}}, {"type": "Feature", "properties": {"norad_id": 38867, "name": "INTELSAT 23 (IS-23)", "group": "intelsat", "lat": -0.0020044023661304066, "lon": -147.05273006720304, "alt_km": 35788.32795416876, "timestamp": "2025-12-23T11:34:47.849421+00:00", "meta": {"OBJECT_NAME": "INTELSAT 23 (IS-23)", "OBJECT_ID": "2012-057A", "EPOCH": "2025-12-23T02:36:31.870080", "MEAN_MOTION": 1.0026504, "ECCENTRICITY": 0.0001016, "INCLINATION": 0.0187, "RA_OF_ASC_NODE": 42.8642, "ARG_OF_PERICENTER": 264.483, "MEAN_ANOMALY": 130.6925, "EPHEMERIS_TYPE": 0, "CLASSIFICATION_TYPE": "U", "NORAD_CAT_ID": 38867, "ELEMENT_SET_NO": 999, "REV_AT_EPOCH": 4818, "BSTAR": 0, "MEAN_MOTION_DOT": -2.63e-06, "MEAN_MOTION_DDOT": 0}, "tle": {"line1": "1 38867U 12057A   25357.10870220 -.00000263  00000+0  00000+0 0  9999", "line2": "2 38867   0.0187  42.8642 0001016 264.4830 130.6925  1.00265040 48186"}}, "geometry": {"type": "Point", "coordinates": [-147.05273006720304, -0.0020044023661304066]}}, {"type": "Feature", "properties": {"norad_id": 39360, "name": "FM-6", "group": "intelsat", "lat": 0.02501636800149025, "lon": 149.7822059269049, "alt_km": 35775.05320515903, "timestamp": "2025-12-23T11:34:47.849432+00:00", "meta": {"OBJECT_NAME": "FM-6", "OBJECT_ID": "2013-058A", "EPOCH": "2025-12-23T03:22:56.446176", "MEAN_MOTION": 1.00270408, "ECCENTRICITY": 0.0003027, "INCLINATION": 0.0116, "RA_OF_ASC_NODE": 61.0585, "ARG_OF_PERICENTER": 114.9661, "MEAN_ANOMALY": 210.4803, "EPHEMERIS_TYPE": 0, "CLASSIFICATION_TYPE": "U", "NORAD_CAT_ID": 39360, "ELEMENT_SET_NO": 999, "REV_AT_EPOCH": 4430, "BSTAR": 0, "MEAN_MOTION_DOT": 4e-08, "MEAN_MOTION_DDOT": 0}, "tle": {"line1": "1 39360U 13058A   25357.14093109  .00000004  00000+0  00000+0 0  9999", "line2": "2 39360   0.0116  61.0585 0003027 114.9661 210.4803  1.00270408 44307"}}, "geometry": {"type": "Point", "coordinates": [149.7822059269049, 0.02501636800149025]}}, {"type": "Feature", "properties": {"norad_id": 40271, "name": "INTELSAT 30 (IS-30)", "group": "intelsat", "lat": 0.013879261494125775, "lon": 170.93605760300792, "alt_km": 35784.17750701133, "timestamp": "2025-12-23T11:34:47.849443+00:00", "meta": {"OBJECT_NAME": "INTELSAT 30 (IS-30)", "OBJECT_ID": "2014-062A", "EPOCH": "2025-12-23T03:22:26.874048", "MEAN_MOTION": 1.00271687, "ECCENTRICITY": 0.0001717, "INCLINATION": 0.0116, "RA_OF_ASC_NODE": 17.0028, "ARG_OF_PERICENTER": 79.4472, "MEAN_ANOMALY": 311.0494, "EPHEMERIS_TYPE": 0, "CLASSIFICATION_TYPE": "U", "NORAD_CAT_ID": 40271, "ELEMENT_SET_NO": 999, "REV_AT_EPOCH": 502, "BSTAR": 0, "MEAN_MOTION_DOT": -1.3e-06, "MEAN_MOTION_DDOT": 0}, "tle": {"line1": "1 40271U 14062A   25357.14058882 -.00000130  00000+0  00000+0 0  9998", "line2": "2 40271   0.0116  17.0028 0001717  79.4472 311.0494  1.00271687  5022"}}, "geometry": {"type": "Point", "coordinates": [170.93605760300792, 0.013879261494125775]}}, {"type": "Feature", "properties": {"norad_id": 40333, "name": "DIRECTV 14", "group": "intelsat", "lat": 0.018854116187732094, "lon": 166.74412463292975, "alt_km": 35784.62975929248, "timestamp": "2025-12-23T11:34:47.849453+00:00", "meta": {"OBJECT_NAME": "DIRECTV 14", "OBJECT_ID": "2014-078B", "EPOCH": "2025-12-23T00:40:39.129024", "MEAN_MOTION": 1.00271593, "ECCENTRICITY": 4.07e-05, "INCLINATION": 0.0215, "RA_OF_ASC_NODE": 12.0937, "ARG_OF_PERICENTER": 126.9823, "MEAN_ANOMALY": 223.6888, "EPHEMERIS_TYPE": 0, "CLASSIFICATION_TYPE": "U", "NORAD_CAT_ID": 40333, "ELEMENT_SET_NO": 999, "REV_AT_EPOCH": 4027, "BSTAR": 0, "MEAN_MOTION_DOT": 0, "MEAN_MOTION_DDOT": 0}, "tle": {"line1": "1 40333U 14078B   25357.02823066  .00000000  00000+0  00000+0 0  9990", "line2": "2 40333   0.0215  12.0937 0000407 126.9823 223.6888  1.00271593 40275"}}, "geometry": {"type": "Point", "coordinates": [166.74412463292975, 0.018854116187732094]}}, {"type": "Feature", "properties": {"norad_id": 40663, "name": "DIRECTV 15", "group": "intelsat", "lat": 0.025152294982693953, "lon": 163.07814753929478, "alt_km": 35786.0107907901, "timestamp": "2025-12-23T11:34:47.849463+00:00", "meta": {"OBJECT_NAME": "DIRECTV 15", "OBJECT_ID": "2015-026A", "EPOCH": "2025-12-23T03:20:33.614016", "MEAN_MOTION": 1.00267208, "ECCENTRICITY": 3.25e-05, "INCLINATION": 0.0221, "RA_OF_ASC_NODE": 19.8534, "ARG_OF_PERICENTER": 136.6441, "MEAN_ANOMALY": 242.6949, "EPHEMERIS_TYPE": 0, "CLASSIFICATION_TYPE": "U", "NORAD_CAT_ID": 40663, "ELEMENT_SET_NO": 999, "REV_AT_EPOCH": 3869, "BSTAR": 0, "MEAN_MOTION_DOT": 0, "MEAN_MOTION_DDOT": 0}, "tle": {"line1": "1 40663U 15026A   25357.13927794  .00000000  00000+0  00000+0 0  9995", "line2": "2 40663   0.0221  19.8534 0000325 136.6441 242.6949  1.00267208 38699"}}, "geometry": {"type": "Point", "coordinates": [163.07814753929478, 0.025152294982693953]}}]}